Name,Address,City,State,ZIP_Code,URL,Phone
"Anchorage ReStore, HFH",1200 W. Northern Lights Blvd,Anchorage,US-AK,99503,www.habitatanchorage.org/restore,(907) 743-8060
Wiregrass HFH ReStore,2086 Montgomery Highway,Dothan,US-AL,36303,www.wiregrasshabitat.org/restore,(334) 699-1570
"Troup County ReStore, HFH",333 Main St,LaGrange,US-GA,30240,www.HfhTroup.org,(706) 416-6332
Newnan-Coweta HFH ReStore,216 Bullsboro Drive,Newnan,US-GA,30263,www.nchfh.org,(770) 252-4061
Alabama ReStore,3831 Pepperell Pkwy,Opelika,US-AL,36801,www.alabamarestore.com,(334) 737-6400
"Birmingham HFH ReStore, Greater",7952 Crestwood Blvd,Birmingham,US-AL,35210,www.habitatbirmingham.org,(205) 951-1234
Show Me Central HFH ReStore,1305 Businees Loop 70 East,Columbia,US-MO,35201,www.showmehabitat.org,(573) 499-1202
"Coosa Valley ReStore, HFH",95 Three Rivers Drive,Rome,US-GA,30161,www.habitatcoosavalley.org,(706) 378-5957
"Tuscaloosa ReStore, HFH of",1120 35th St Ste B,Tuscaloosa,US-AL,35401,www.tuscaloosarestore.org,(205) 349-4620
Columbus-Lowndes HFH ReStore,1110 Gardner Blvd.,Columbus,US-MS,39702,https://columbushabitat.org,(662) 329-2501
Montgomery HFH ReStore,2216 E South Blvd,Montgomery,US-AL,36116,www.habitatmontgomery.com,(334) 281-0880
"Morgan County ReStore, HFH of",1123 Central Pkwy SW,Decatur,US-AL,35601,morganhabitat.org/restore,(256) 308-1160
Starkville HFH ReStore,206 S Jackson St,Starkville,US-MS,39759,www.starkvillehabitat.com,(662) 324-7008
"Madison County ReStore, HFH of",400 Pratt Ave NW,Huntsville,US-AL,35801,www.habitatmadisonco.org/restore,(256) 533-2282
Shoals HFH ReStore,1120 N Royal Ave,Florence,US-AL,35630,https://www.shoalshabitat.org,(256) 764-4494
Williamson County HFH ReStore,1725 Columbia Ave Ste 110,Franklin,US-TN,37064,www.hfhwm.org/restore,(615) 690-8094
Escambia Co HFH ReStore,1606 Douglas Ave,Brewton,US-AL,36426,www.escambiahfh.org,251-867-5659
Rutherford County Area HFH ReStore,850 Mercury Blvd,Murfreesboro,US-TN,37130,rchfh.org/restore.php,(615) 849-5994
"Chattanooga ReStore, HFH of Greater",1201 E Main St,Chattanooga,US-TN,37408-1613,www.habichatt.org/restore,(423) 634-1004
"Gordon County ReStore, HFH of",809 Oothcoologa St,Calhoun,US-GA,30701,gordonhabitat.org/Restore.html,(706) 625-9929
Dalton/Whitfield HFH ReStore,111 N Glenwood Ave,Dalton,US-GA,30721,www.habitatdwm.org,(706) 272-3336
"Pine Belt ReStore, HFH of the",5191 Old Hwy 42,Hattiesburg,US-MS,39402,www.hattiesburghabitat.org/Restore,(601) 582-4663
"Baldwin County (Daphne) ReStore, HFH of",27900 N Main St,Daphne,US-AL,36526,baldwinhabitat.org/restore,(251) 410-8080
Dickson ReStore,223 Dickson Plz Dr,Dickson,US-TN,37055,www.habitatnashville.org/restore,615-446-4385
"Nashville ReStore 2, HFH of Gtr",414 Harding Place,Nashville,US-TN,37211,www.habitatnashville.org/homestore,(615) 942-1292
Rutherford County Area HFH ReStore - Smyrna,413 Nissan Blvd.,Smyrna,US-TN,37167,www.rchfh.org/restore,(615) 625-3427
"Carroll County ReStore, HFH of",20765 E Main St,Huntingdon,US-TN,38344,cchabitat2007.homestead.com/restore.html,(731) 986-5900
"Jackson, TN, Area ReStore",1668 N Pkwy,Jackson,US-TN,38301,www.jacksonhabitat.com/restore,(731) 427-6540
"Chattanooga ReStore Ooltewah, HFH of Greater",9408 Apison Pike,Ooltewah,US-TN,37363,www.ooltewahrestore.com,(423) 634-1004
Memphis ReStore,7130 Winchester Rd,Memphis,US-TN,38125,www.MemphisReStore.com,(901) 737-8673
"Cleveland ReStore, HFH of",300 Grove Ave,Cleveland,US-TN,37311,habitatofcleveland.org/restore,(423) 473-4610
Pensacola HFH ReStore,6931 N 9th Ave,Pensacola,US-FL,32504,pensacolarestore.com,(850) 476-0001
"Smyrna, Habitat For Humanity ReStore","3315 S Cobb Dr, Ste 150",Smyrna,US-GA,30080,www.suburbanatlantarestores.org,(770) 415-1625
Atlanta HFH ReStore,271 Chester Ave. SE,Atlanta,US-GA,30316,www.atlantahabitat.org/restore,(404) 525-2114
Flint River HFH ReStore,2815 Old Dawson road,Albany,US-GA,31707,www.flintriverhabitat.org,(229) 446-8199
Arkansas Valley HFH Restore,421 Towson Ave,Fort Smith,US-AR,72901,www.habitatfs.org/index.php?page=restore,(479) 783-2766
Garland County HFH ReStore - Lake Hamilton,2817 Airport Road,Hot Springs,US-AR,71913,www.garlandcountyhabitat.com,(501) 767-4483
Garland County HFH ReStore Hot Springs Valley,3825 North Highway 7,Hot Springs Village,US-AR,71909,www.garlandcountyhabitat.com,(501) 624-3333
Washington Co. AR Habitat ReStore,1421 E 15th St,Fayetteville,US-AR,72701,https://www.habitatwashingtoncoar.org/shop-at-restore,(479) 582-2076
Garland County HFH ReStore,350 Malvern Ave,Hot Springs,US-AR,71901,www.garlandcountyhabitat.com,(501) 321-4241
Tahlequah Area HFH ReStore Rack,12 Plaza South St,Tahlequah,US-OK,74464,tahlequahhabitat.org/restores/restorerack.html,(918) 453-0466
Tahlequah Habitat ReStore,198 W First,Tahlequah,US-OK,74464,www.tahlequahhabitat.org,(918) 453-2720
"Benton County ReStore, HFH of",1212 North Walton Blvd.,Bentonville,US-AR,72712,www.habitatbentoncountyar.org/restore,(479) 273-3638
"Saline County ReStore, AR, HFH of",124 S Mkt St,Benton,US-AR,72015,https://www.habitatsalinecounty.com,(501) 315-0011
"Central Arkansas ReStore- Little Rock, HFH of",6700 S University,Little Rock,US-AR,72209,https://www.habitatcentralar.org,(501) 771-9494
"Central Arkansas ReStore- Cabot, HFH of",1900 S Pine St,Cabot,US-AR,72023,habitatcentralar.org,(501) 286-6122
"White County ReStore, AR; HFH of",1315 W Beebe Capps Expy,Searcy,US-AR,72143,www.habitatwhiteco.org,(501) 278-5530
"Central Arkansas ReStore, HFH of",2657 Pike Ave,North Little Rock,US-AR,72114,https://www.habitatcentralar.org,(501) 771-9497
"Jonesboro, HFH of Greater ReStore",3610 E. Highland Rd.,Jonesboro,US-AR,72401,https://www.jonesborohabitat.com/restore,(870) 336-0462
"Howell County ReStore, HFH of",1109 Porter Wagoner Blvd,West Plains,US-MO,65775,howellcountyhabitat.org,(417) 256-1576
"Cape Area ReStore, HFH",2365 Rust Ave,Cape Girardeau,US-MO,63701,capeareahabitat.org/restore/index.php,(573) 651-9080
"South Barry Co ReStore, HFH of",900 10th St.,Cassville,US-MO,65625,local.habitat.org/ucbhfh,(417) 846-0110
"Claremore ReStore 1, HFH",202 N Owalla,Claremore,US-OK,74017,www.habitatclaremore.org,(918) 845-9888
"Springfield ReStore, HFH of",2410 S Scenic Ave,Springfield,US-MO,65807,www.habitatspringfieldmo.org/restore,(417) 829-4001
"Montgomery County TN ReStore, HFH of",404 Madison St,Clarksville,US-TN,37040,www.clarksvillerestore.org,(931) 645-4242
"Jefferson County, MO HFH ReStore",207 North Truman Blvd,Crystal City,US-MO,63019,www.habitatjeffcomo.org/restore.html,(636) 937-7282
Lake of the Ozarks HFH ReStore,308 Keystone Business Dr,Camdenton,US-MO,65020,www.lakeoftheozarkshabitatforhumanity.org/resalest,(573) 317-0470
"Tulsa HFH, Inc. ReStore Rack",1112 S Memorial Dr.,Tulsa,US-OK,74112,https://www.tulsahabitat.com/restore,(918) 359-5555
Tulsa HFH ReStore,1234 S Norwood,Tulsa,US-OK,74112,www.tulsahabitat.org,(918) 359-5555
St. Louis HFH Restore,3830 South Grand Blvd,St. Louis,US-MO,63118,www.habitatstl.org/restore,(314) 531-4155
"Tucson HabiStore, HFH",935 W Grant Rd,Tucson,US-AZ,85705,www.habitattucson.org/habistore,(520) 889-7200
"Central Arizona ReStore-Tempe, HFH",3210 S McClintock Dr,Tempe,US-AZ,85282,https://habitatcaz.org/restores,(623) 551-6000
"Central Arizona ReStore-Phoenix, HFH",115 East Watkins,Phoenix,US-AZ,85004,www.habitatcaz.org/restore/index.php,(623) 551-6000
"Central Arizona ReStore- West Phoenix, HFH",4344 W Indian School Rd,Phoenix,US-AZ,85031,www.habitatcaz.org/restore,(623) 551-6000
Wickenburg Area HFH Restore,370 W Ctr St,Wickenburg,US-AZ,85390,www.wickenburghabitatforhumanity.com,(928) 684-2220
"Flagstaff ReStore, HFH of",2016 N 4th St,Flagstaff,US-AZ,86003,https://hfhnaz.org,(928) 779-1314
Payson Area HFH ReStore,425 N. Beeline Hwy,Payson,US-AZ,85541,www.paysonhabitat.org,(928) 474-4247
"Montezuma County ReStore, HFH",6786 Highway 491/160,Cortez,US-CO,81321,habitatmontezuma.org/sales-center,(970) 565-8327
Prescott Area HFH Restore,1061 Commerce Dr,Prescott,US-AZ,86305,www.prescotthabitat.org/ReStore.html,(928) 771-1777
Verde Valley HFH ReStore,737 S Main St,Cottonwood,US-AZ,86326,www.vvhabitat.org,(928) 649-6788
"La Plata Co Restore, HFH of",50 Design Center Road,Durango,US-CO,81301,www.habitatlaplata.org/restore,(970) 382-9931
"Montrose County ReStore, HFH of",1601 N Townsend Ave,Montrose,US-CO,81401,https://buildinglives.org/give-get,(970) 252-9304
"Southwest Utah ReStore, HFH of",835 S Bluff St,George,US-UT,84770,www.habitatswu.org/restore,(435) 628-4041
"Mesa County ReStore, HFH of",2936 N Ave,Grand Junction,US-CO,81504,www.habitatmesa.org,(970) 263-0858
Mesilla Valley HFH Restore,2301 S Main St,Las Cruces,US-NM,88005,www.lascruceshabitat.org,(575) 523-5019
"El Paso, HFH of - ReStore",1220 Rojas Dr B-6,El Paso,US-TX,79935,https://www.habitatelpaso.org/restore-temp,(915) 706-5060
"Las Vegas ReStore- East, HFH",3455 E Flamingo Rd,Las Vegas,US-NV,89121,https://www.lasvegashabitat.org/restore,(702) 458-1640
Las Vegas ReStore- Boulevard Mall; HFH,3700 S Maryland Parkway,Las Vegas,US-NV,89119,www.lasvegashabitat.org,(702) 638-8406
Las Vegas ReStore- West; HFH,"4580 W Sahara Ave, Ste 120",Las Vegas,US-NV,89102,www.lasvegashabitat.org,(702) 638-6477
"Habitat Restore of Yuma, AZ",3242 E 43rd St,Yuma,US-AZ,85365,www.yumahabitat.org/items-donate,(928) 344-5788
"Coachella Valley ReStore, HFH of",72680 Dinah Shore Dr #6,Palm Desert,US-CA,92211,hfhcv.org/restore.html,(760) 770-3723
"San Bernardino Area ReStore, HFH",25948 Business Ctr Dr,Redlands,US-CA,92374,www.habitatsb.org,(909) 799-6738
Otero County HFH ReStore,1109 Tenth St,Alamogordo,US-NM,88310,www.whitesandshabitat.org,(575) 437-0160
San Diego HFH - National City ReStore,310 National City Blvd.,National City,US-CA,91950,sandiegohabitat.org,(619) 516-5267
San Diego HFH - Kearny Mesa ReStore,8108 Mercury Court,San Diego,US-CA,92111,sandiegohabitat.org,(619) 516-5267
San Diego HFH - Escondido ReStore,837 Metcalf st,Escondido,US-CA,92025,sandiegohabitat.org,(619) 516-5267
"Espanola Vly,Los Alamos ReStore 2, HFH",518 W Pueblo,Espanola,US-NM,87532,www.habitatevla.org/restore.htm,(505) 747-2690
"Espanola Vly/Los Alamos ReStore, HFH",726 N Riverside Dr,Espanola,US-NM,87532,www.habitatevla.org/restore.htm,(505) 747-2690
"Riverside ReStore, HFH",2180 Iowa Ave,Riverside,US-CA,92507-2441,www.RiversideRestore.org,(951) 787-6754
Inland Valley HFH ReStore-Lake Elsinore,570-I Central Ave,Lake Elsinore,US-CA,92530,www.habitativ.org/restore,(951) 471-1188
"Los Angeles ReStore- Bellflower, HFH of",8739 Artesia Blvd,Bellflower,US-CA,90706,www.habitatla.org/restore,(310) 323-4663
"Los Angeles ReStore- Torrance, HFH of Greater",18600 Crenshaw Blvd.,Torrance,US-CA,90504,www.habitatla.org/restore,(310) 818-5222
"Orange County ReStore- Anaheim, HFH of",1656 West Katella Avenue,Anaheim,US-CA,92802,www.ReStoreOC.org,(714) 434-6266
"Orange County ReStore-Santa Ana, HFH of",2140 Ritchey Street,Santa Ana,US-CA,92705,www.restoreoc.org,(714) 434-6266
Atwater Village ReStore,5201 West San Fernando Road,Los Angeles,US-CA,90039,www.sgvhabitat.org/about-restores,(626) 387-6900
"Los Angeles ReStore- Mid-Wilshire, HFH of Greater",1071 South La Brea Ave,Los Angeles,US-CA,90019,www.habitatla.org/restore,(323) 421-3700
San Gabriel Valley HFH ReStore- Duarte,2215 Huntington Dr.,Duarte,US-CA,91010,www.sgvhabitat.org/about-restores,(626) 387-6900
Pomona Valley HFH ReStore,4609 Holt Blvd,Montclair,US-CA,91763,www.habitatpv.org/restore.htm,(909) 399-0202
Simi Valley ReStore HFH,1293-A E Los Angeles Ave,Simi Valley,US-CA,93065,www.habitatventura.org,(805) 520-7717
"San Jose ReStore, HFH",1608 Las Plumas Ave,San Jose,US-CA,95133,restore.habitatebsv.org,(800) 746-7090
"Tulare County ReStore, HFH of",637 S Lovers Ln,Visalia,US-CA,93292,www.hfhtkc.org/restore,(559) 734-4056
"Fresno County, HFH ReStore",1631 Railroad Ave,Clovis,US-CA,93612,www.restorefresno.org,(559) 237-7867
HFH of Tulare/Kings Counties ReStore- Hanford,415 W Lacey Blvd.,Hanford,US-CA,93230,www.hfhtkc.org/restore,(559) 772-4032
"Fresno County, HFH ReStore - West",4065 W. Shaw Avenue,Fresno,US-CA,93722,www.habitatfresno.org/restore,(559) 380-0140
"Golden Empire ReStore, HFH - White Lane",5101 White Lane Suite #F,Bakersfield,US-CA,93309,Restorebakersfield.org,(661) 282-8090
"Tuolumne County ReStore, HFH of",14301 Mono Way,Sonora,US-CA,95370,www.habitattuolumne.org/the-restore,(209) 533-9080
"Calaveras, HFH ReStore",770A Industrial Blvd,San Andreas,US-CA,95249,www.habitatcalaveras.org/restore,(209) 754-3234
"San Joaquin County ReStore, HFH of",4933 West Lane,Stockton,US-CA,95203,www.sjchabitat.org,(209) 463-1043
Sacramento HFH Restore,819 N 10th St,Sacramento,US-CA,95811,habitatgreatersac.org/restore/sacrestore,(916) 440-1215
El Dorado County Restore,6168 Pleasant Vly Rd,El Dorado,US-CA,95623,www.edchabitat.org/restore,(530) 621-3317
"Stanislaus Co. Restore-Kearney, HFH",630 Kearney Ave,Modesto,US-CA,95350,www.stanislaushabitat.org,(209) 575-4585
Foothills HFH ReStore,8292 Industrial Ave,Roseville,US-CA,95678,www.foothillshabitat.org,(916) 797-8673
"Concord ReStore, HFH","1500 Monument Blvd, Ste G-2",Concord,US-CA,94520,restore.habitatebsv.org,(800) 746-7090
Solano-Napa ReStore HFH,104 Commerce Ct,Fairfield,US-CA,94534,www.solanonapahabitat.org/restore,(707) 863-0692
"Oakland ReStore, HFH",9235 San Leandro St,Oakland,US-CA,94603,restore.habitatebsv.org,(800) 746-7090
"Ventura County ReStore, HFH of",1850 Eastman Ave,Oxnard,US-CA,93030,www.habitatventura.org,(805) 981-2268
"San Luis Obispo Co ReStore-Templeton, HFH for",2959 Limestone Way,Paso Robles,US-CA,93446,www.hfhsloco.org,(805) 434-0486
"San Luis Obispo Co ReStore, HFH for",187 Tank Farm Rd #130A,San Luis Obispo,US-CA,93401,www.hfhsloco.org,(805) 546-8699
"Northern Santa Barbara Co ReStore, HFH",2053 Preisker Ln Ste B & C,Santa Maria,US-CA,93454,www.nsbhabitat.com,(805) 928-5399
"Monterey Bay, HFH - Monterey ReStore",4230 Gigling Road,Seaside,US-CA,93955,habitatmontereybay.org/restore,(831) 272-4830
"Butte Co ReStore, HFH of",220 Meyers St,Chico,US-CA,95928,www.buttehabitat.org/page/re-store.php,(530) 895-1271
Truckee Meadows HFH ReStore,530 Greenbrae Drive,Sparks,US-NV,89431,habitatforhumanityreno.org/restore.html,(775) 323-5511
"Yuba/Sutter ReStore, HFH",202 D Street,Marysville,US-CA,95901,www.yubasutterhabitat.org/restore,(530) 742-2727
Nevada County HFH ReStore,12359 Loma Rica Dr,Grass Valley,US-CA,95945,https://nchabitat.org/habitat-restore,(530) 274-3761
"Sonoma County ReStore, HFH of",1201 Piner Rd #500,Santa Rosa,US-CA,95403,www.habitatsoco.org/restore,(707) 568-3228
San Diego HFH - Carlsbad ReStore,1810 Marron Road,Carlsbad,US-CA,92008,https://www.sandiegohabitat.org/ReStore/About-the-ReStore,(619) 516-5267
La Pine Sunriver HFH ReStore,52684 N Highway 97,La Pine,US-OR,97739,www.habitatlapinesunriver.org,(541) 536-3234
"Metro Denver ReStore- Aurora, HFH of","1640 S Abilene St, Unit H",Aurora,US-CO,80012,https://www.habitatmetrodenver.org/restore,(720) 904-6739
Metro Denver ReStore- Denver; HFH of,70 Rio Grande Blvd,Denver,US-CO,80223,www.HabitatDenverReStore.org,(303) 722-5863
Flatirons HFH ReStore,"1 Park St, Ste B",Broomfield,US-CO,80020,www.flatironshabitat.org/restore,(303) 404-2008
Metro Denver ReStore- Wheat Ridge; HFH of,10625 W I-70 Frontage Rd,Wheat Ridge,US-CO,80033,https://www.habitatmetrodenver.org/restore,(303) 421-1908
"Taos Restore, HFH of",16 State Rd 522,Taos,US-NM,87529,www.taoshabitat.org/restore/index.php,(575) 776-2165
"Fremont County ReStore, HFH of",727 S 8th St,Canon City,US-CO,81212,www.habitatfremontcounty.org,(719) 275-1787
Pikes Peak HFH Restore,411 S Wahsatch Ave,Colorado Springs,US-CO,80903,www.pikespeakhabitat.org/restore,(719) 667-0840
Greeley Area HFH ReStore,2400 29th St,Greeley,US-CO,80631,www.greeleyrestore.org,(970) 352-1404
Berthoud HFH ReStore,157 Mountain Ave,Berthoud,US-CO,80513,www.berthoudhabitat.org,(970) 532-2870
"St. Vrain Valley ReStore, HFH of the",1351 Sherman Dr,Longmont,US-CO,80501,www.stvrainhabitat.org/restore,(303) 776-3334
Loveland HFH ReStore,5250 N Highway 287,Loveland,US-CO,80538,https://www.lovelandhabitat.org,(970) 669-7343
Santa Fe HFH ReStore,2520 Camino Entrada Unit A,Sante Fe,US-NM,87507,www.santaferestore.org,(505) 473-1114
Chaffee County HFH ReStore,101 Gregg Dr,Buena Vista,US-CO,81211,www.chaffeehabitat-restore.org,(719) 966-6004
"Summit ReStore, Colorado, HFH of",1291 Blue River Pkwy,Silverthorne,US-CO,80498,www.summithabitat.org,(970) 423-7445
"Vail Valley ReStore, HFH",751 Chambers Ave,Eagle,US-CO,81631,www.habitatvailvalley.org,(970) 328-1119
Blue Spruce HFH  Restore,1232 Bergen Pkwy,Evergreen,US-CO,80439,www.bluesprucerestore.org,(303) 674-4917
"Roaring Fork Valley ReStore, HFH of the",53 Calaway Court,Glenwood Springs,US-CO,81601,www.habitatroaringfork.org/restore,(970) 945-9138
"Laramie County ReStore, HFH of",1721 Ames Ave,Cheyenne,US-WY,82001,www.cheyennehabitat.org/ReStore,(307) 637-8067
"Utah County ReStore- Spanish Fork, HFH",253 West Arrowhead Trl,Spanish Fork,US-UT,84660,www.habitatuc.org,(801) 877-0202
"Summit & Wasatch Counties, UT ReStore; HFH of",6280 Silver Creek Drive,Park City,US-UT,84098,www.habitat-utah.org/restore,(435) 487-9015
"Utah County ReStore- Orem, HFH Of",340 S Orem Blvd,Orem,US-UT,84058,www.habitatuc.org,(801) 344-8527
Salt Lake Valley HFH ReStore,1276 S 500 W,Salt Lake City,US-UT,84101,www.habitatsaltlake.com,(801) 263-0136
"Weber and Davis Counties ReStore-Layton, HFH of",859 W Hill Field Rd.,Layton,US-UT,84041,https://davisrestore.org,(801) 515-7590
Wind River Country ReStore; HFH of,305 E Main St,Riverton,US-WY,82501,www.WindRiverHabitat.org,(307) 857-6430
Amarillo HFH ReStore 1,2626 Paramount Blvd,Amarillo,US-TX,79109,https://www.amarillohabitat.org,(806) 373-1185
"Northern Virginia Restore-Alexandria, HFH",869 South Pickett St,Alexandria,US-VA,22304,https://www.habitatnova.org/restore,(703) 670-6700
"Northern Virginia ReStore-Chantilly, HFH of",4311 Walney Rd,Chantilly,US-VA,20151,https://www.habitatnova.org/restore,(703) 953-3747
"Northern Virginia Restore-Herndon, HFH",311 Spring Street,Herndon,US-VA,20170,https://www.habitatnova.org/restore,(571) 306-0908
Habitat for Humanity ReStore - Manassas,10159 Hastings Drive,Manassas,US-VA,20110,www.habitatpwc.org/restore,(703) 369-6145
Loudoun HFH ReStore,700 Fieldstone Drive,Leesburg,US-VA,20176,www.loudounrestore.org,(571) 919-6330
Metro Maryland ReStore,1029 East Gude Drive,Rockville,US-MD,20850,habitatmm.org/furniture-donations,(301) 947-3304
Prince William County HFH ReStore - Woodbridge,14055 Noblewood Plaza,Woodbridge,US-VA,22193,habitatpwc.org/programs/restore,(703) 369-6145
Fauquier HFH Restore,617 Frost Ave,Warrenton,US-VA,20186,www.fauquierhabitatrestore.org,(540) 216-3447
ReStore NCC Wilmington DE,3312 Seminole Ave,Wilmington,US-DE,19808,www.habitatncc.org/restore,(302) 652-5181
Salem County ReStore HFH,416 S Pennsville-Auburn Rd,Carneys Point,US-NJ,08069,habitatsalem.org,(856) 299-0031
"Chester County ReStore, HFH of",1853 E Lincoln Highway,Coatesville,US-PA,19320,www.restorechesco.org,(610) 466-7364
"Philadelphia ReStore, HFH",2318 Washington Avenue,Philadelphia,US-PA,19146,www.habitatphiladelphia.org/restore,(215) 739-9300
Gloucester County HFH ReStore,425 S Broadway,Pitman,US-NJ,08071,www.gc-habitat.org,(856) 256-2004
Camden County Habitat ReStore,6955 Central Highway,Pennsauken,US-NJ,08109,www.habitatcamden.org/restore,(856) 963-8018
"Montgomery County PA ReStore, HFH of",533 Foundry Rd,Norristown,US-PA,19403,habitatmontdelco.org,(610) 631-3149
"New Castle County ReStore - Middletown, HFH of",600 N. Broad Street,Middletown,US-DE,19709,www.habitatncc.org/restore,(302) 449-1414
"Burlington and Mercer Co. ReStore, HFH of",530 East Route 38,Maple Shade,US-NJ,08052,www.habitatbcnj.org/restore,(856) 439-6717
"Montgomery County PA ReStore - Horsham, HFH of",200 Blair Mill Rd,Horsham,US-PA,19044,habitatmontdelco.org/restore/the-restore,(215) 394-8270
Aberdeen ReStore,1013 Beards Hill Rd,Aberdeen,US-MD,21001,www.habitatsusq.org/restore,(443) 567-7698
Lancaster Area HFH ReStore,155 Independence Ct,Lancaster,US-PA,17601,lancasterlebanonhabitat.org/lancrestore,(717) 293-0250
Central Delaware HFH ReStore,2311 South DuPont Hwy,Dover,US-DE,19901,centraldelawarehabitat.org/restore,(302) 346-0220
Sussex County HFH - Lewes ReStore,18501 Stamper Drive,Lewes,US-DE,19958,https://www.sussexcountyhabitat.org/restore,(302) 855-1156
HFH of Worcester Co. Inc. ReStore,9026 Worcester Hwy,Berlin,US-MD,21811,habitatworcester.org/restore,(410) 208-4440
"Choptank, Inc.,HFH ReStore",8610 Commerce Dr,Easton,US-MD,21601,www.habitatchoptank.org/restore-2-2,(410) 820-6186
HFH Cape May County ReStore,Restore,Cape May Court House,US-NJ,08210,www.habitatcapemaycounty.org,(609) 465-1626
"Broward ReStore, HFH of",505 W Broward Blvd,Fort Lauderdale,US-FL,33312,www.habitatbroward.org/restore,(954) 763-7771
"South Palm Beach Co ReStore- Boca Raton, HFH of",272 S Dixie Highway,Boca Raton,US-FL,33432,www.habitatsouthpalmbeach.org,(561) 362-7284
"South Palm Beach County ReStore - Delray, HFH of",1900 N. Federal Highway,Delray Beach,US-FL,33483,bocadelrayboynton.habitatrestores.org,(561) 455-4441
"Upper Keys ReStore, HFH of the",98970 Overseas Highway,Key Largo,US-FL,33037,habitatupperkeys.org,(305) 453-7855
"Palm Beach Co ReStore- Greenacres, HFH of",4639 Lake Worth Rd,Greenacres,US-FL,33463,www.habitatpbc.org/stores,(561) 202-1630
"Palm Beach Co ReStore- Jupiter, HFH of",1635 N Old Dixie Highway,Jupiter,US-FL,33469,www.habitatpbc.org/stores,(561) 401-4087
Habitat Home Store of Collier County,11127 Tamiami Trl E,Naples,US-FL,34113,www.habitatstores.org,(239) 732-1672
"Martin County ReStore, HFH of",2555 SE Bonita St,Stuart,US-FL,34997,www.habitatmartin.org,(772) 223-8991
Habitat ReStore of Collier County,5430 Yahl St,Naples,US-FL,34109,www.habitatstores.org,(239) 260-5256
"Martin County ReStore North, HFH of",2090 NW Federal Hwy,Stuart,US-FL,34994,www.habitatmartin.org,(772) 223-8991
Alachua HFH ReStore,2317 SW 13th St,Gainesville,US-FL,32608-2006,www.alachuahabitat.org/restore,(352) 373-5728
Clay County HFH ReStore,1717 Blanding Blvd,Middleburg,US-FL,32068,www.clayhabitat.org,(904) 282-7590
"Seminole/ Apopka ReStore- Sanford, HFH of",1100 Americana Blvd,Sanford,US-FL,32773-8027,www.HabitatSeminoleApopka.org,(407) 215-2000
West Orange HFH ReStore,13369 W. Colonial Drive,Winter Garden,US-FL,34787,www.westorangehabitat.org/restore,(407) 905-0406
West Volusia HFH ReStore,604 S Sping Gdn Ave,DeLand,US-FL,32720,www.wvhabitat.org/contact,(386) 734-7268
Southeast Volusia HFH ReStore- New Smyrna Beach,722 S Dixie Fwy,New Smyrna Beach,US-FL,32168,www.habitatsev.org/restore,(386) 428-5010
Lake-Sumter FL ReStore-Eustis; HFH,710 S. Bay St.,Eustis,US-FL,32726,www.habitatls.org,(352) 483-0410
Lake-Sumter FL ReStore-Groveland; HFH,205 Woodfield Court,Groveland,US-FL,34736,www.habitatls.org,(352) 429-9052
Halifax HFH ReStore,695 Mason Ave,Daytona Beach,US-FL,32114,www.habitatgvc.org/restore,(386) 226-2006
Lake-Sumter FL ReStore-Leesburg; HFH,200 N Lone Oak Dr,Leesburg,US-FL,34748,www.habitatls.org,(352) 728-6366
HFH of East Polk Co ReStore - Dundee,27985 US Hwy 27,Dundee,US-FL,33838,habitateastpolk.org/restore,(863) 353-5967
Lake-Sumter FL ReStore-Wildwood; HFH,6761 CR 148,Wildwood,US-FL,34785,www.habitatls.org,(352) 330-0881
Flagler HFH ReStore,2 W Moody Blvd,Bunnell,US-FL,32110,www.flaglerhabitat.com,(386) 437-9855
Big Bend HFH ReStore,387-C Marpan Ln,Tallahassee,US-FL,32310,bigbendhabitat.org,(850) 544-6438
"East Polk Co ReStore, HFH of",3550 Recker Highway,Winter Haven,US-FL,33880,www.habitateastpolk.org,(863) 292-2256
Lakeland HFH ReStore,1317 George Jenkins Blvd.,Lakeland,US-FL,33815,www.habitatoflakeland.org,(863) 688-4660
"Lee & Hendry Co ReStore- N. Fort Myers, HFH of",31 Willis Road,North Fort Myers,US-FL,33903,restorelee.org,(239) 652-1699
"Lee & Hendry Co. ReStore- S. Fort Myers, HFH of",16133 S Tamiami Trail,Fort Myers,US-FL,33908,restorelee.org,(239) 652-1660
"Lee & Hendry Co ReStore- McGregor Blvd, HFH of",15271 McGregor Blvd,Fort Myers,US-FL,33908,restorelee.org,(239) 202-8483
"Lee & Hendry Co ReStore- Bonita Springs, HFH of",9080 Bonita Beach Road,Bonita Springs,US-FL,34135,restorelee.org,(239) 949-4409
Charlotte County HFH ReSale Store- Punta Gorda,1750 Manzana Ave,Punta Gorda,US-FL,33950,www.charlottecountyhfh.org/resalestores.html,(941) 205-7467
Charlotte County HFH ReSale Store- Murdock,2440 Tamiami Trail,Port Charlotte,US-FL,33952,charlottecountyhfh.org/store,(941) 391-6562
Arcadia-DeSoto County HFH ReStore,114 N Polk Ave,Arcadia,US-FL,34266,www.desotohabitat.com,(863) 494-6456
Charlotte County HFH ReSale Store- Port Charlotte,1354 El Jobean Rd,Port Charlotte,US-FL,33948,www.charlottecountyhfh.org/resalestores.html,(941) 206-2606
Charlotte County HFH ReSale Store- Englewood,3949 S Access Rd,Englewood,US-FL,34224,www.charlottecountyhfh.org/resalestores.html,(941) 681-3600
"Walton County, FL, ReStore, HFH of",110 Highway 393 S,Santa Rosa Beach,US-FL,32459,www.waltoncountyhabitat.org/restore.htm,(850) 660-6004
Bay County ReStore,1515 E. 11th St.,Panama City,US-FL,32401,habitatbay.org/restore,(850) 215-2289
"Okaloosa County ReStore, HFH in",39 S.E. Eglin Parkway,Ft Walton Beach,US-FL,32548,www.restorefwb.org,(850) 685-0686
"Camden County ReStore, HFH of",302 S Lee St,Kingsland,US-GA,31548,www.hfhcamden.org/restore,(912) 729-3633
St. Lucie HFH ReStore 2,10185 South Federal Highway,Port Saint Lucie,US-FL,34952,www.stluciehabitat.org,(772) 249-4023
Manatee County HFH ReStore,5108 15th St E,Bradenton,US-FL,34203,https://manateehabitatrestore.com,(941) 355-7082
"Sarasota ReStore 1, HFH",2095 17th St,Sarasota,US-FL,34234,habitatsrq.org,(941) 363-0777
Hillsborough Co Florida ReStore - Brandon,501 W Robertson St,Brandon,US-FL,33511,www.habitathillsborough.org/restore,(813) 337-7898
"Hillsborough Co Florida ReStore, HFH of",3738 E Hillsborough Ave,Tampa,US-FL,33610,https://www.habitathillsborough.org,(813) 237-1978
West Pasco HFH ReStore,4131 Madison St,New Port Richey,US-FL,34652,www.wphabitat.com,(727) 843-8786
"Hernando County ReStore, HFH of",19450 Cortez Blvd,Brooksville,US-FL,34601,www.habitathernando.org,(352) 754-1255
Hillsborough Co Florida ReStore- Silvermill,11236 West Hillsborough Ave,Tampa,US-FL,33635,www.habitathillsborough.org,(813) 580-7236
"Citrus County ReStore- Inverness, HFH of",3703 E Gulf to Lake Hwy,Inverness,US-FL,34453,www.habitatcc.org/shop.php,(352) 341-1800
"Marion Co ReStore 2, HFH of",10800 SW 91st Ave,Ocala,US-FL,34481,www.ocalarestore.org,(352) 401-0075
"Jacksonville ReStore 2, HFH of",6260 103rd St.,Jacksonville,US-FL,32210,www.habijax.org/restore,(904) 575-4348
"Citrus County ReStore-Crystal River, HFH of",7800 W. Gulf to Lake Highway,Crystal River,US-FL,34429,www.habitatcc.org/shop.php,(352) 564-2300
Valdosta-Lowndes Co. ReStore HFH,2010 E Cypress,Valdosta,US-GA,31601,www.valdostahabitat.org/restore.htm,(229) 247-8513
"Bulloch County ReStore, HFH of",201 Johnson St,Statesboro,US-GA,30458,www.habitatbulloch.org,(912) 489-2076
"Effingham County ReStore, HFH of",3605 Highway 21 S,Rincon,US-GA,31326,restore.habitatec.org,(912) 826-6433
Coastal Empire HFH ReStore,"701 MLK, Jr. Blvd",Savannah,US-GA,31405,www.habitatsavannah.org,(912) 661-3137
Augusta/CSRA HFH ReStore,1004 Walton Way,Augusta,US-GA,30901,www.augustahabitat.org/restore,(706) 364-7637
Hilton Head Regional HFH ReStore-Bluffton,18 Plantation Park Dr.,Bluufton,US-SC,29910,habitathhi.org/restore,(843) 757-9995
Augusta/CSRA HFH ReStore West,3112 Washington Road,Augusta,US-GA,30907,www.augustahabitat.org/restore,(706) 426-8619
LowCountry HFH ReStore,612 Parris Is Gtwy,Beaufort,US-SC,29906,www.lowcountryhabitat.org/restore,(843) 525-0055
Aiken County HFH ReStore,1026 Park Ave SE,Aiken,US-SC,29801,www.HabitatAiken.org/html/inkind.cfm,(803) 642-0530
Edisto HFH ReStore,260 John C Calhoun Dr,Orangeburg,US-SC,29115,www.edistohabitatforhumanity.org,(803) 539-2242
Abbeville/McCormick Co HFH ReStore,205 S. Main St,McCormick,US-SC,29835,web.wctel.net/~habitathomes,(864) 852-9094
New Horizons Habitat ReStore,723 Millard Fuller Blvd.,Americus,US-GA,31709,www.newhorizonshabitat.org/donation---restore-donations.html,(229) 931-9899
Greenwood Area HFH ReStore,337 Maxwell Avenue,Greenwood,US-SC,29646,greenwoodhabitat.org/restore/restore,(864) 450-9146
Greene County HFH ReStore,1373 Willow Run Rd,Greensboro,US-GA,30642,www.habitatgreene.org,(706) 453-1718
"Anderson ReStore, HFH of",210 S Murray Ave,Anderson,US-SC,29624,www.habitatanderson.org/restore,(864) 375-1177
"Glynn County ReStore, HFH of",1919 Glynn Avenue,Brunswick,US-GA,31520,www.habitatglynncounty.org/ReStore,(912) 265-7455
Lawrenceville Habitat Restore,2100 Riverside Pkwy Ste 123A,Lawrenceville,US-GA,30043,www.suburbanatlantarestores.org,(770) 415-1590
"Hall County ReStore, HFH of",2380 Murphy Boulevard,Gainesville,US-GA,30504,https://habitathallcounty.org/the-restore,(678) 450-5998
"Conyers-Rockdale ReStore, HFH of",1117 West Ave,Conyers,US-GA,30012,www.habitatrockdale.net,(770) 785-7675
"Northeast Georgia ReStore, HFH of",1085 Rocky Br Rd,Clarkesville,US-GA,30523,www.habitatnega.org/restore,(706) 754-5313
Athens Area HFH ReStore- East,532 Barber St,Athens,US-GA,30601,www.AthensHabitat.com/Stores,(706) 354-0936
Athens Area HFH ReStore- West,4125 Atlanta Highway,Athens,US-GA,30622,https://www.athenshabitat.com/stores,(706) 354-0936
Central South Carolina HFH ReStore,2814 Augusta Road,Columbia,US-SC,29170,www.midlandsrestore.org,(803) 936-0088
Sea  Island HFH ReStore,3304 Maybank Highway,Johns Island,US-SC,29455,www.seaislandhabitat.org/index.php/restore/restore,(843) 559-4009
Dorchester HFH ReStore,101 Greyback Rd,Summerville,US-SC,29483,www.dorchesterhabitat.org/restore,(843) 871-1159
"Fannin & Gilmer Co ReStore, HFH of",4187 E First St,Blue Ridge,US-GA,30513,www.hfhfanningilmer.org,(706) 632-6337
Charleston HFH ReStore,731 Meeting St,Charleston,US-SC,29403,www.charlestonhabitat.org/restore,(843) 579-0777
Macon Area HFH ReStore,690 Holt Ave,Macon,US-GA,31204,www.maconhabitat.org/restore,(478) 752-5859
Franklin County HFH ReStore,11927 Augusta Rd,Lavonia,US-GA,30553,local.habitat.org/fchabitat,(706) 356-5479
East Cooper HFH ReStore,469C Long Pt Rd,Mount Pleasant,US-SC,29464,www.thehabitatrestore.com,(843) 849-8002
"West Hawaii ReStore, HFH - Waimea",65-1259 Kawaihae Rd.,Waimea,US-HI,96743,www.habitathawaiiisland.org,(808) 885-9091
"Honolulu ReStore,HFH",922 Austin Lane #C-1,Honolulu,US-HI,96817,www.honoluluhabitat.org/restore,(808) 380-8617
"Leeward Oahu ReStore, HFH",91-291 Kalaeloa Blvd A 6-8,Kapolei,US-HI,96707,www.leewardhabitat.org,(808) 6828411
"Maui ReStore, HFH",1162 Lower Main Street,Wailuku,US-HI,96793,www.habitat-maui.org/restore,(808) 242-1140
Hale Aloha O Hilo HFH ReStore,863 Iolani Ave,Hilo,US-HI,96720,www.habitathawaiiisland.org,(808) 935-6677
"Fairfield Area HFH ReStore, Greater",1903 Business Highway 34,Fairfield,US-IA,52556,www.fairfieldhabitat.org,(641) 209-9450
Iowa Valley HFH ReStore,2401 Scott Blvd SE,Iowa City,US-IA,52240,www.iowacityrestore.com,(319) 338-5687
Cedar Valley HFH Restore,350 6th Ave SE,Cedar Rapids,US-IA,52401,www.cvhabitat.org/restore,(319) 294-1500
"Des Moines HFH ReStore, Greater",2200 E Euclid,Des Moines,US-IA,50317,www.gdmhabitat.org/restore,(515) 309-0224
"Quad Cities ReStore, HFH",3629 Mississippi Ave,Davenport,US-IA,52807,www.restoreqc.org,(563) 391-4949
Urbandale ReStore,4033 NW Urbandale Dr,Urbandale,US-IA,50322,https://www.gdmhabitat.org/restore,(515) 309-0224
Iowa Heartland HFH Restore,4107 Hammond Ave,Waterloo,US-IA,50701,www.webuildhabitat.org/restore/restore,(319) 883-3331
"Peoria Area ReStore- University, HFH Greater",4912 N University St,Peoria,US-IL,61614,https://www.habitatpeoria.org/restore,(309) 676-6299
"North Central Iowa ReStore, HFH of",517 1st St NW,Mason City,US-IA,50401,www.habitatnci.org/index.php/the-restore,(641) 423-1688
Siouxland HFH Restore,1150 TriView Ave,Sioux City,US-IA,51103,www.siouxlandhabitat.org,(712) 224-6133
"Dane County ReStore West, HFH of",5906 Odana Rd,Madison,US-WI,53719,www.restoredane.org,(608) 442-9919
La Crosse Area HFH ReStore,3181 Berlin Drive,La Crosse,US-WI,54601,www.habitatlacrosse.org/restore,(608) 785-2375
"Winona Restore, HFH-",900 W 3rd St,Winona,US-MN,55987,habitatwinona.org,(507) 474-6075
Rochester Area HFH ReStore,3034 40th Avenue NW,Rochester,US-MN,55901,www.rochesterrestore.org,(507) 258-5505
"Adams County ReStore, HFH of",N 3696 Highway 12/16,Mauston,US-WI,53948,www.maustonrestore.com,(608) 847-2000
"St. Joseph ReStore, HFH",3131 Frederick Ave,Saint Joseph,US-MO,64506,www.habitatstjoe.org,(816) 279-5607
HFH of Kansas City Restore- North Kansas City,8516 North Oak Traffic way,Kansas City,US-MO,64155,www.habitatkc.org/restorekc,(816) 231-6889
"Truman Heritage ReStore, HFH",505 North Dodgion Ave,Independence,US-MO,64050,trumanrestore.org,(816) 886-7374
HFH of Kansas City Restore-Deramus,4701 Deramus Ave,Kansas City,US-MO,64120,www.habitatkc.org/restorekc,(816) 231-6889
Truman Heritage HFH ReStore- Blue Springs,1219 NW 7 Highway,Blue Springs,US-MO,64014,www.trumanrestore.org,(816) 886-7374
Rockford Area HFH ReStore,7141 Harrison Ave,Rockford,US-IL,61112,www.rockfordhabitat.org/restore,(815) 713-3184
"Dane County ReStore East, HFH of",4207 Monona Dr,Madison,US-WI,53716,www.restoredane.org,(608) 661-2813
HFH of McHenry County ReStore,133 S. Eastwood Dr.,Woodstock,US-IL,60098,www.habitatmchenry.org/restore-2,(815) 334-0500
"Omaha ReStore- West, HFH of",10910 Emmet St,Omaha,US-NE,68164,www.OmahaHabitatReStore.org,(402) 934-1033
"Omaha ReStore- South, HFH of",1003 S 24th St,Omaha,US-NE,68108,www.omahahabitatrestore.org,(402) 934-1033
"South Central Minnesota ReStore, HFH of",1730 Bassett Dr.,Mankato,US-MN,56001,mankatorestore.org,(507) 388-6682
Chippewa Valley ReStore HFH,145 N. Clairemont Avenue,Eau Claire,US-WI,54703,www.cvh4h.org,(715) 895-8177
Twin Cities HFH ReStore - Minneapolis,2700 Minnehaha Av S,Minneapolis,US-MN,55406,restore.tchabitat.org,(612) 588-3820
HFH of Kansas City Restore-Johnson County,8722 Santa Fe Dr.,Overland Park,US-KS,66212,www.habitatkc.org/restorekc,(816) 231-6889
Gateway HFH ReStore,2400 Garrett Way,Pocatello,US-ID,83201,www.gatewayhabitat.org/restore.html,(208) 233-9081
"Idaho Falls Area ReStore, HFH",1954 N. Yellowstone Hwy.,Idaho Falls,US-ID,83401,www.idahofallshabitat.org/restore,(208) 552-0491
"Magic Valley Restore, HFH of the",639 Eastland Dr South,Twin Falls,US-ID,83301,www.habitatmagicvalley.org/ReStore,(208) 735-1233
"Teton Area ReStore, HFH of the Greater",850 W Broadway Suite D,Jackson,US-WY,83001,www.tetonhabitat.org/restore,(307) 734-0389
Cache Valley Habitat ReStore,46 1/2 east 200 South,Logan,US-UT,84321,www.cachevalleyhabitatrestore.org,(435) 752-2786
"Weber and Davis Counties ReStore, HFH of",3111 Wall Ave,Ogden,US-UT,84404,https://weberrestore.org,(801) 393-3287
BVHFH ReStore Collister Center,4716 W State Street,Boise,US-ID,83703,www.hfhboise.org,(208) 331-6653
Boise Valley HFH Restore,10537 W Overland Rd,Boise,US-ID,83709,www.hfhboise.org/restore,(208) 375-5256
Lewiston-Clarkston Partners HFH ReStore,1633 G St,Lewiston,US-ID,83501,www.lewisclarkhabitat.org/store,(208) 743-1300
Palouse HFH ReStore,304 N Main St,Moscow,US-ID,83843,https://palousehabitat.org/shop,(208) 882-5246
"North Idaho ReStore, HFH",176 W Wyoming Ave,Hayden,US-ID,83835,www.northidahohabitat.org/restore,(208) 762-4352
"Spokane Store, HFH of",1805 East Trent Ave,Spokane,US-WA,99202,www.habitat-spokane.org,(509) 535-9517
"Ravalli Co. ReStore, HFH of",131 Old Corvallis Rd.,Hamilton,US-MT,59840,ravallihabitat.org/resale-store,(406) 375-1926
Canyon County HFH ReStore,1404 1st Street South,Nampa,US-ID,83651,canyonhabitat.org,(208) 463-0864
Grande Ronde Valley HFH ReStore,2304 E R Ave,La Grande,US-OR,97850,www.unioncounty-habitat.org,(541) 963-2414
Tri-County Partners HFH Store,309 Wellsian Way,Richland,US-WA,99352,www.habitatbuilds.com,(509) 943-1330
"Gallatin Valley ReStore, HFH of",230 Arden Dr,Belgrade,US-MT,59714,www.habitatbozeman.org,(406) 388-2851
Mountain Spirit HFH ReStore,509 Gateway Dr,Powell,US-WY,82435,www.mshfh.org,(307) 254-7004
Mountain Spirit HFH ReStore- 2,265 N. Bent St,Powell,US-WY,82435,www.mshfh.org,(307) 271-1879
Helena Area HFH Restore,1531 National Ave,Helena,US-MT,59601,www.helenahabitat.org/restore,(406) 457-0444
"Mid-Yellowstone Valley ReStore, HFH",685 King Park Dr,Billings,US-MT,59102,www.billingshabitat.org/restore,(406) 256-0409
Jefferson County HFH ReStore,84 SW K St,Madras,US-OR,97741,www.jeffcohabitat.org,(541) 475-9722
Idaho Panhandle HFH Restore,1519 Baldy Park Road,Sandpoint,US-ID,83864,www.iphfh.org,(208) 265-5313
"Colville Valley Partners Store, HFH-",480 N Main St,Colville,US-WA,99114,www.habitatcolville.org,(509) 684-2319
"Flathead Valley ReStore, HFH of",2533 US Highway 93 South,Kalispell,US-MT,59901,www.habitatflathead.org/restore.html,(406) 752-2905
Lake Chelan Valley HFH Store,518 E Woodin Ave,Chelan,US-WA,98816,chelanhabitat.com/store_293.html,(509) 682-7088
Upper Columbia Basin HFH Store,223 2nd Ave SE,Quincy,US-WA,98848,local.habitat.org/ucbhfh,(509) 787-2144
Bend Area HFH ReStore,244 NE Thurston,Bend,US-OR,97701,www.restorebend.org,(541) 312-6709
McLean County Restore,1402 W Washington St,Bloomington,US-IL,61701-4714,www.bnrestore.org,(309) 454-6047
Lewis & Clark HFH ReStore,1950 Vandalia St.,Collinsville,US-IL,62234,lcrestore.org,(618) 223-1711
DuPage HFH ReStore- Addison,869 S Rohlwing Rd (Rte 53),Addison,US-IL,60101,www.dupagerestore.org,(630) 517-2080
"Chicago ReStore, HFH",6040 N Pulaski,Chicago,US-IL,60646,https://www.habitatchicago.org/restore,(773) 539-6040
DuPage HFH ReStore- Aurora,4100 Fox Vly Ctr Dr,Aurora,US-IL,60504,www.foxvalleyrestore.org,(630) 585-5508
"Northern Fox Valley ReStore, HFH of",800 N State St,Elgin,US-IL,60123,www.restoreelgin.org,(847) 742-9905
Will County HFH ReStore,1395 Larkin Avenue,Joliet,US-IL,60435,www.restorejoliet.org,(815) 714-7100
McHenry ReStore,903 Front St,McHenry,US-IL,60050,www.habitatmchenry.org/restore-2,(815) 331-8153
"Henderson ReStore, HFH of",1030 Third Street,Henderson,US-KY,42420,www.hendersonhabitat.org,(270) 826-0015
"Evansville, HFH of - ReStore",1301 N. Royal Ave,Evansville,US-IN,47715,www.evansvillerestore.org,(812) 602-3460
"Warrick County ReStore, HFH of",10622 Telephone Rd,Chandler,US-IN,47610,www.warrickhabitat.org,(812) 858-3707
Coles County HFH ReStore,520 W Lincoln Ave,Charleston,US-IL,61920,www.colescountyhabitat.net/restore.html,(217) 348-7066
"Dubois County ReStore, HFH of",4232 S. 170 E.,Huntingburg,US-IN,47542,www.duboishabitat.org/restore.html,(812) 482-5909
"Pennyrile Region, Inc. ReStore, HFH",43 S Daves St,Madisonville,US-KY,42431,www.habitatforhumanityofhopkinscounty.org/restore,(270) 825-1565
"Moultrie County ReStore, HFH",401 S Hamilton,Sullivan,US-IL,61951,www.habitatmoultrieco.org,(217) 728-8700
Wabash Valley HFH ReStore,1831 Wabash Ave,Terre Haute,US-IN,47807,www.wvh4h.org,(812) 232-9200
"Monroe County ReStore, HFH of",850 S Auto Mall Rd,Bloomington,US-IN,47401,www.monroecountyhabitat.org/restore,(812) 331-2660
"Danville ReStore,HFH of",422 N Vermilion S,Danville,US-IL,61832,www.danvillerestore.org,(217) 442-0004
"Champaign County ReStore, HFH of",119 E University Ave,Champaign,US-IL,61824,www.cuhabitat.org/restore,(217) 819-5118
Decatur Area HFH ReStore,932 E Wood St.,Decatur,US-IL,62521,www.decaturhabitat.org,(217) 330-5870
Indianapolis ReStore - Avon,1099 N Avon Ave,Avon,US-IN,46123,www.indyrestore.com,(317) 707-7529
"Lafayette ReStore, HFH of",3815 Fortune Dr,Lafayette,US-IN,47905,www.lafayettehabitat.org,(765) 423-2585
"Peoria Area ReStore  East Peoria, HFH Greater",110 Carver Lane,East Peoria,US-IL,61611,www.habitatpeoria.org/restore.html,(309) 285-8078
"Chicago South Suburbs ReStore, HFH",180 W Joe Orr Rd,Chicago Heights,US-IL,60411,gohabitatrestore.com.,(708) 755-1840
"Northwest Indiana ReStore, HFH of",6114 W. Ridge Road,Gary,US-IN,46408,www.nwirestore.org,(219) 923-7265
"Northwest Indiana ReStore, HFH of - Merrillville",3823 E Lincoln Hwy,Merrillville,US-IN,46410,www.nwiRestore.org,(219) 940-3216
"St. Charles Co ReStore, HFH of",186 Mid Rivers Center,Saint Charles,US-MO,63376,habitatstcharles.org/restore.html,(636) 978-5712
"Bowling Green/Warren ReStore, HFH of",1232 Adams St,Bowling Green,US-KY,42101,www.facebook.com/habitatBG,(270) 901-0150
"Marshall County ReStore, HFH of",116 S Walnut,Plymouth,US-IN,46563,www.habitatomc.org/restore,(574) 935-4214
"Waukesha Co. ReStore, HFH of",2120 East Moreland Blvd,Waukesha,US-WI,53186,habitatwaukesha.org/restore,(262) 662-6061
"Boone County ReStore, HFH of",10650 Andrade Dr,Zionsville,US-IN,46077,www.boonehabitat.org/restore,(317) 344-3033
"Elkhart County ReStore, HFH of",2910 Elkhart Road,Goshen,US-IN,46526,www.elkhartcountyrestore.org,(574) 533-1823
"St. Joseph County ReStore-South Bend, HFH of",2411 South Main St,South Bend,US-IN,46614,www.hfhsjc.org/restore,(574) 232-4911
Fort Wayne HFH ReStore,4747 Lima Rd.,Fort Wayne,US-IN,46808,https://habitatgfw.com/restore-shop,(260) 470-4200
"St. Joseph County ReStore-Mishawaka, HFH of",5225 Grape Rd,Mishawaka,US-IN,46545,www.hfhsjc.org,(574) 254-4911
"Muncie Indiana HFH ReStore, Greater",4640 W. Bethel Ave.,Muncie,US-IN,47304,munciehabitat.org/restore,(765) 288-1814
"Hamilton County ReStore, HFH",7998 Centerpoint Dr.,Indianapolis,US-IN,46256,www.habitathamiltoncounty.org/restore,(317) 896-9423
Preble County HFH ReStore,131 N Barron St,Eaton,US-OH,45320,www.facebook.com/preblecountyrestore,(937) 472-0002
Raintree HFH ReStore,605 New York Avenue,New Castle,US-IN,47362,www.habitat.org/cd/kit/homepage.aspx?page=r,(765) 529-3229
HFH of Grt Cincinnati ReStore - Fairfield,4655 Dixie Highway,Fairfield,US-OH,45014,www.habitatcincinnati.org/restore,(513) 893-1102
HFH of Greater Indianapolis ReStore- Greenfield,1141 W. US 40,Greenfield,US-IN,46140,www.indyrestore.com,(317) 318-9380
"Johnson County ReStore, HFH of",6720 N US 31,Whiteland,US-IN,46184,Habitatjohnsoncounty.org,(317) 535-6720
"Indianapolis ReStore, HFH of Greater",1011 E 22nd St,Indianapolis,US-IN,46202,www.indyrestore.com,(317) 777-6140
"Heart of Madison HFH, Inc. ReStore",931 Lanier Dr,Madison,US-IN,47250,www.hfhmadison.com/restore,(812) 273-9500
Branch County HFH ReStore,255 Division Street,Coldwater,US-MI,49036,www.habitatbranchcounty.org,(517) 279-2200
Kalamazoo HFH ReStore,7612 South Westnedge Avenue,Portage,US-MI,49002,www.habitatkalamazoo.org,(269) 381-5523
Battle Creek Area HFH ReStore,595 North Avenue,Battle Creek,US-MI,49017,www.habitatbc.org/content/about,(269) 441-1038
"Jackson HFH Restore, Greater",251 W. Prospect St.,Jackson,US-MI,49203,https://jacksonhabitat.org/restore,(517) 784-7640
Harbor HFH ReStore,2302 Plaza Drive,Benton Harbor,US-MI,49022,harborhabitat.org,(269) 927-0006
Metro Louisville ReStore-Portland,1631 Rowan St,Louisville,US-KY,40203,www.louisvillerestore.org,(502) 805-2035
"Miami County ReStore, HFH of",1490 W. Main St.,Troy,US-OH,45373,www.hfhmco.org,(937) 703-9683
"Lenawee County ReStore, HFH of",1025 East US Hwy 223,Adrian,US-MI,49221,www.habitat-lenawee.org,(517) 266-0746
Maumee Valley HFH ReStore,1310 Conant St,Maumee,US-OH,43537,https://www.mvhabitat.org/restore/restore,(419) 382-1658
Barry County ReStore,1215 N. Broadway St,Hastings,US-MI,49058,hastingsrestore.org,(269) 948-9998
"Huron Valley ReStore, HFH of",6241 Jackson Rd.,Ann Arbor,US-MI,48103,www.annarborrestore.org,(734) 822-1530
Wichita HFH ReStore,601 N West St Ste 100,Wichita,US-KS,67203,www.wichitahabitat.org/restore,(316) 943-6996
"Ellis Co ReStore, HFH of",2918 Vine ST,Hays,US-KS,67601,www.habitatelliscounty.org,(785) 623-4200
Manhattan Area HFH Restore,514 Pillsbury Drive,Manhattan,US-KS,66502,mahfh.org/habitat-restore,(785) 320-9334
Topeka HFH ReStore,121 NE Gordon Street,Topeka,US-KS,66608,www.topekahabitat.org,(785) 783-7670
Lawrence HFH Restore,708 Connecticut St,Lawrence,US-KS,66044,www.LawrenceReStore.org,(785) 856-6920
HFH of Kansas City Restore- Martin City,13531 Wyandotte St,Kansas City,US-MO,64145,https://habitatkc.org/restorekc,(816) 231-6889
Grand Island Area ReStore HFH,3204 College St,Grand Island,US-NE,68803,www.gihabitat.org,(308) 385-5082
Glasgow-Barren County HFH ReStore,506 W Main St,Glasgow,US-KY,42141,https://www.facebook.com/GlasgowHabitatReStore,(270) 629-5775
"Sumner County ReStore, HFH of",327 Sumner Hall Dr,Gallatin,US-TN,37066,www.habitatsumnercounty.org/restore,(615) 230-3032
Upper Cumberland HFH Restore,728 E 15th St,Cookeville,US-TN,38501,www.uchabitat.org/restore,(931) 528-1709
Hardin County HFH ReStore,2816 Ring Road,Elizabethtown,US-KY,42701,www.hardinhabitat.com,(270) 737-0207
"Wilson County ReStore, HFH of",606 E Main St,Lebanon,US-TN,37087,www.habitatnashville.org/restore,(615) 453-3799
Appalachia HFH ReStore - Oneida,215 East Bilbrey Street,Oneida,US-TN,37841,www.facebook.com/appalachia.habitat,(423) 569-3229
Bellevue-HFH of Grt Cincinnati ReStore,15 Donnermeyer Dr,Bellevue,US-KY,41073,habitatcincinnati.org/restore,(859) 261-0456
"Madison & Clark Counties ReStore, HFH of",830 Eastern By-Pass,Richmond,US-KY,40475,www.habitatmadisonclark.org,(859) 353-5556
Huntington Area ReStore HFH,240 3rd Ave,Huntington,US-WV,25701,www.hahabitat.org/restore,(304) 781-1333
Kanawha & Putnam County ReStore - Teays Valley,3554 Teays Valley Road,Hurricane,US-WV,25526,TeaysValleyReStore.org,(304) 720-8733
Kanawha & Putnam County Restore,301 Piedmont Rd,Charleston,US-WV,25301,charlestonwvrestore.org,304-720-8733
Madison & Clark Counties ReStore- Winchester,1946 Bypass Rd.,Winchester,US-KY,40391,https://hfhmcc.org/restore,(859) 385-4581
"Southeast Ohio ReStore, HFH of",309 W. Union St.,Athens,US-OH,45701,www.habitatseo.org/restore,(740) 589-5865
Lexington HFH ReStore,451 Southland Dr,Lexington,US-KY,40503,www.LexingtonReStore.com,(859) 252-2224
Holston HFH ReStore,750 East Main St,Kingsport,US-TN,37660,holstonhabitat.org/Home/restore,(423) 378-4760
"Mid-Ohio Valley ReStore, HFH of the",600 16th Street,Vienna,US-WV,26105,www.habitatmov.com/restore,(304) 422-4828
Holston HFH Johnson City ReStore,3201 Kimberly Ct,Johnson City,US-TN,37604,www.holstonhabitat.org,(423) 378-4760
Almost Heaven HFH ReStore,1431 North Jefferson Street,Lewisburg,US-WV,24901,www.almostheavenhabitat.org/restore,(304) 647-1359
Habitat Restore of Boone NC,1200 Archie Carroll Road,Boone,US-NC,28607,www.wataugahabitat.org/restore,(828) 268-9696
"New River Valley ReStore; HFH, Inc., of The",1675 North Franklin St,Christiansburg,US-VA,24073,www.habitatnrv.org,(540) 381-1155
Avery Co HFH ReStore,2170 Millers Gap Highway,Newland,US-NC,28657,www.averycohfh.org,(828) 733-2025
Bond Hill- HFH of Grt Cincinnati Restore Central,4910 Para Dr,Cincinnati,US-OH,45237,www.habitat.org/restores/search?zip=45237,(513) 621-0061
Lafayette HFH ReStore,3123 1/2 Johnston St,Lafayette,US-LA,70503,www.restorelafayette.org,(337) 371-6030
"Southeast Baton Rouge, Habitat ReStore",10300 Perkins Road,Baton Rouge,US-LA,70810,www.habitatbr.org/restore,(225) 408-0021
"Greater Baton Rouge Restore, HFH of",4301 Airline Highway,Baton Rouge,US-LA,70805,batonrouge.habitatrestores.org,(225) 355-1895
Bayou Area HFH ReStore,509 Saint Mary St,Thibodaux,US-LA,70301,www.bayouhabitat.org/restore/index.php,(985) 447-9743
"Jefferson County ReStore, HFH of",610 Trinity,Beaumont,US-TX,77701,https://beaumonthabitat.org/restore,(409) 835-2330
New Orleans Area HFH ReStore- Kenner,2425 Williams Blvd.,Kenner,US-LA,70062,www.habitat-nola.org/restore,(504) 943-2240
New Orleans Area HFH ReStore,2900 Elysian Flds Ave,New Orleans,US-LA,70122,www.nola-restore.org,(504) 943-2240
"St. Tammany West ReStore, HFH",1400 North Ln,Mandeville,US-LA,70471,https://habitatstw.org/restore,(985) 898-0642
Bay Area HFH ReStore,1101 W Nasa Parkway,Webster,US-TX,77598,www.bahfh.org/ReStore,(281) 332-1118
Houston HFH ReStore,6161 S Loop E,Houston,US-TX,77087,www.houstonhabitat.org/restore,(713) 643-1100
"Mississippi Gulf Coast ReStore, HFH of the",8022 Hwy 49,Gulfport,US-MS,39501,www.ReStoreMGC.org,(228) 678-9100
"MS Gulf Coast ReStore- Ocean Springs, HFH of the",3176 Bienville Blvd,Ocean Springs,US-MS,39564,restoremgc.org,2284474835
Montgomery County TX HFH ReStore,9407 SH 242,Conroe,US-TX,77385,www.hfhmctx.org/restore,(936) 441-5888
Houston HFH ReStore- West,5280 W 34th St,Houston,US-TX,77092,https://houstonhabitat.org/restore,(346) 406-3882
"Northwest Harris Co ReStore, HFH of",13350 Jones Rd,Houston,US-TX,77070,Habitatnwhc.org,(281) 890-5585
Fort Bend HFH ReStore,505 Julie Rivers Dr.,Sugarland,US-TX,77478,www.fortbendhabitat.org,(281) 403-0708
"Southern Brazoria Co ReStore, HFH of",12 Circle Way,Lake Jackson,US-TX,77566,habitatsbc.org,(979) 285-0090
Patuxent HFH Restore,21600 Great Mills Rd,Lexington Park,US-MD,20653,https://www.patuxenthabitat.org/restore,(301) 863-6227
"Fredericksburg HFH ReStore, Greater",2378 Plank Road,Fredericksburg,US-VA,22401,www.fredhab.org/site,(540) 891-5009
Hanover HFH ReStore,9159 Atlee Road,Mechanicsville,US-VA,23116,www.Hanoverrestore.org,(804) 569-6226
"Chesapeake ReStore-Baltimore, HFH of the",505 Kane St,Baltimore,US-MD,21224,www.chesapeakerestore.org,(410) 633-0506
"Chesapeake ReStore- Timonium, HFH of the",7 W. Aylesbury Rd.,Timonium,US-MD,21093,www.chesapeakerestore.org,(410) 821-1402
"Chesapeake ReStore-Sandtown, HFH of the",1300 N Fulton Ave,Baltimore,US-MD,21217,www.chesapeakerestore.org,(410) 669-6836
"Chesapeake ReStore-Glen Burnie, HFH of the",595 E. Ordnance Road,Glen Burnie,US-MD,21060,www.chesapeakerestore.org,(410) 437-7755
"Chesapeake ReStore- Halethorpe, HFH of the",3741 Commerce Dr Ste 311,Baltimore,US-MD,21227,www.chesapeakerestore.org,(443) 297-5141
"Chesapeake ReStore- Columbia, HFH of the",8909 McGaw Ct,Columbia,US-MD,21045,www.chesapeakerestore.org,(410) 633-0506
Mon Valley HFH ReStore,1825 Earl L Core Rd,Morgantown,US-WV,26505,https://www.monvalleyhfh.org/restore,(304) 291-2991
Washington Co ReStore HFH,1001 East Maiden St,Washington,US-PA,15301,www.habitatwashpa.org/restore,(724) 503-4416
"Pittsburgh ReStore, HFH Greater",1913 Monongahela Ave,Pittsburgh,US-PA,15218,www.pittsburghhabitat.org/restore,(412) 244-7100
"Frederick County ReStore, HFH of",917 N East Street,Frederick,US-MD,21701,www.frederickhabitat.org/restore,(301) 662-2988
Washington County HFH ReStore,100 Charles St,Hagerstown,US-MD,21740,www.restorehagerstown.org,(301) 745-5457
Blue Ridge HFH Inc. ReStore,400 Battaile Drive,Winchester,US-VA,22601,www.Winchesterrestore.com,(540) 662-9704
"Franklin County ReStore, HFH of",1662 Lincoln Way East,Chambersburg,US-PA,17202,https://www.habitatfranklinpa.org/restore,(717) 491-1156
"Harrisburg Area, HFH of the Grt ReStore",800 Paxton Street,Harrisburg,US-PA,17104,https://harrisburghabitat.org/home/restore,(717) 480-5083
Eastern Shore of Virginia HFH ReStore,3271 Main St,Exmore,US-VA,23350,www.easternshorehabitat.org/habitat-restore.html,(757) 442-3500
"Grand Traverse Region ReStore, HFH",2487 Rice Street,Traverse City,US-MI,49684,www.habitatgtr.org/restore,(231) 944-1182
"Kent County ReStore North, HFH of",5920 Alpine Ave NW,Comstock Park,US-MI,49321,www.restoregr.org,(616) 647-9292
"Kent County ReStore South, HFH of",5701 S Division,Wyoming,US-MI,49548,www.restoregr.org,(616) 531-4591
Montcalm County HFH ReStore,124 W Grove St,Greenville,US-MI,48838,https://www.montcalmhabitat.com/restore,(616) 754-5014
Lakeshore HFH ReStore,12727 Riley St.,Holland,US-MI,49424,www.lakeshorehabitat.org,(616) 399-7006
Tri-Cities Area HFH ReStore,408 N. Ferry St.,Grand Haven,US-MI,49417,tricitieshabitat.org/restore_13.html,(616) 607-2300
"Clinton County ReStore, HFH of",2352 N US 27,Saint Johns,US-MI,48879,habitatclinton.org/the-restore,(989) 227-0000
"Lansing ReStore, HFH",1941 Benjamin Dr.,Lansing,US-MI,48906,https://www.habitatcr.org,(517) 374-6235
Livingston County HFH ReStore,7198 Grand River,Brighton,US-MI,48114-9347,www.livingstonhabitat.org/restore,(810) 220-9986
"Ingham ReStore, HFH of Gtr",954 East Grand River Road,Williamston,US-MI,48895,www.inghamhabitat.org/restore,(517) 655-1872
Macomb County  HFH ReStore,46660 Van Dyke,Shelby Charter Township,US-MI,48317,www.macombhabitat.org,(586) 263-1540
"Oakland Co ReStore, HFH of",3653 Highland Rd.,Waterford,US-MI,48328,www.habitatoakland.org/restore,(248) 338-8392
"Lapeer Co ReStore, HFH of",1633 N. Lapeer Road,Lapeer,US-MI,48446,www.lapeerhabitat.org,(810) 660-7823
Macomb County ReStore,23211 VanDyke,Warren,US-MI,48089,macombhabitat.org/restore,(586) 806-5604
"Oakland Co ReStore - Farmington, HFH",28575 Grand River Ave,Farmington Hills,US-MI,48336,www.habitatoakland.org/restores,(248) 442-2267
Genesee County HFH ReStore,101 Burton St.,Flint,US-MI,48503,www.geneseehabitat.org/ReStore.html,(810) 766-9089
Blue Water HFH ReStore,3524 Pine Grove Ave,Port Huron,US-MI,48060,www.bwhabitat.org/restore,(810) 364-6919
"Lapeer-Tuscola ReStore- Caro, HFH of",1521 W Caro Rd,Caro,US-MI,48723,www.lapeerhabitat.org/restore.html,(989) 325-1807
"Findlay/Hancock County ReStore, HFH of",1200 Commerce Pkwy,Findlay,US-OH,45840,www.habitatfindlay.org,(419) 429-1400
Cheboygan County HFH ReStore,9385 N Straits Highway,Cheboygan,US-MI,49721,www.habitatcheboygan.org/restore,(231) 597-9463
Northwest Michigan HFH ReStore,1840 M 119,Petoskey,US-MI,49770,www.northwestmihabitat.org,(231) 347-8440
Copper Country HFH ReStore,25971 Pine St.,Calumet,US-MI,49913,coppercountry.habitatrestores.org,(906) 337-0020
Copper Country HFH ReStore- Atlantic Mine,47298 Highway M-26,Atlantic Mine,US-MI,49905,coppercountry.habitatrestores.org,(906) 523-7160
Marquette County HFH ReStore,133 Carmen Dr,Marquette,US-MI,49855,www.mqthabitat.org,(906) 249-4416
"Menominee River ReStore, HFH",113 S Milwaukee St,Kingsford,US-MI,49802,www.restoreupmi.com,(906) 774-2867
"HiawathaLand, Inc. ReStore; HFH",401 Deer St,Manistique,US-MI,49854,www.hiawathalandhabitat.com/ReStore,(906) 341-1444
"Sawyer County ReStore, HFH of",10191N Greenwood Lane,Hayward,US-WI,54843,habitatsawyercounty.com,(715) 634-1340
Door County HFH ReStore,410 N 14th Ave,Sturgeon Bay,US-WI,54235,www.doorhabitat.org,(920) 743-2869
Wild Rivers HFH ReStore- Spooner,1357 North River Street,Spooner,US-WI,54801,www.wildrivershabitat.org,(715) 635-4771
Greater Green Bay HFH ReStore,1967 Allouez Avenue,Green Bay,US-WI,54311,www.restoregb.org,(920) 338-1650
North Star HFH ReStore,400 Sheridan Ave.,Sault Sainte Marie,US-MI,49783,www.northstarhabitat.org/restore,(906) 632-6616
Bay County HFH ReStore,519 Washington Ave.,Bay City,US-MI,48708,www.habitatbaycounty.org/restore.html,(989) 894-0415
Saginaw HFH ReStore,315 W. Holland Ave.,Saginaw,US-MI,48602,saginawrestore.com,(989) 754-9435
Ogemaw HFH ReStore,116 South 5th,West Branch,US-MI,48661,www.habitatgladwin.org,(989) 345-7085
Gladwin HFH ReStore,117 W Brown St.,Beaverton,US-MI,48612,www.habitatgladwin.org/restore,(989) 435-6630
Roscommon County HFH ReStore,1861 W Houghton Lk Dr,Prudenville,US-MI,48651,www.roscommoncountyhabitat.org,(989) 202-2477
Alpena Area HFH Restore,2118 Werth Road,Alpena,US-MI,49707,https://www.habitatnemi.org,(989) 354-5555
"Fox Cities Area HFH ReStore West, Greater",5402 W. Integrity Way,Appleton,US-WI,54913,www.appletonrestore.org,(920) 830-8400
"Fox Cities Area HFH ReStore, Greater",3000 E College Ave,Appleton,US-WI,54915,www.appletonrestore.org,(920) 830-8400
Oshkosh HFH ReStore,1640 S Koeller St,Oshkosh,US-WI,54902,www.habitatoshkosh.org,(920) 230-3535
"Mason County ReStore, HFH of",3408 W. U.S. 10,Ludington,US-MI,49431,masoncountyhabitat.org/restore.php,(231) 843-0396
Wild Rivers HFH ReStore- Saint Croix,2201 US Highway 8,Saint Croix Falls,US-WI,54024,www.wildrivershabitat.org,(715) 483-2700
Itasca County HFH ReStore,510 SE 11th Street,Grand Rapids,US-MN,55744,www.itascahabitat.org,(218) 999-9099
Firelands HFH ReStore,7602 Milan Rd,Sandusky,US-OH,44870,www.firelandshabitat.org/restore/index.php,(419) 621-2207
"Whatcom Co. Store- Bellingham, HFH in",1825 Cornwall Ave,Bellingham,US-WA,98225,www.hfhwhatcom.org/explore-our-store,(360) 778-2036
Clallam County HFH Store- Sequim,213 E Washington Street,Sequim,US-WA,98382,www.habitatclallam.org,(360) 681-6780
"Island County Store, HFH of",280 SE Pioneer Way Ste105,Oak Harbor,US-WA,98277,www.islandcountyhabitat.org/stores.html,(360) 675-8733
Skagit Habitat for Humanity Store,1022 Riverside Dr,Mount Vernon,US-WA,98273,www.skagithabitatstore.com,(360) 428-9402
"East Jefferson County Store, HFH of",2001 W Sims Way,Port Townsend,US-WA,98368,https://www.habitatejc.org/shop,(360) 385-9653
The Habitat Store Smokey Point,17020 Smokey Point Blvd,Arlington,US-WA,98223,https://habitatsnohomish.org/our-stores,(425) 659-1346
"East Jefferson County Store 2, HFH of",294963 Highway 101,Quilcene,US-WA,98376,https://www.habitatejc.org/shop,(360) 765-3520
"Anchorage ReStore, HFH",1200 W. Northern Lights Blvd,Anchorage,US-AK,99503,www.habitatanchorage.org/restore,(907) 743-8060
"Honolulu ReStore,HFH",922 Austin Lane #C-1,Honolulu,US-HI,96817,www.honoluluhabitat.org/restore,(808) 380-8617
"Leeward Oahu ReStore, HFH",91-291 Kalaeloa Blvd A 6-8,Kapolei,US-HI,96707,www.leewardhabitat.org,(808) 6828411
"Maui ReStore, HFH",1162 Lower Main Street,Wailuku,US-HI,96793,www.habitat-maui.org/restore,(808) 242-1140
"West Hawaii ReStore, HFH - Waimea",65-1259 Kawaihae Rd.,Waimea,US-HI,96743,www.habitathawaiiisland.org,(808) 885-9091
Hale Aloha O Hilo HFH ReStore,863 Iolani Ave,Hilo,US-HI,96720,www.habitathawaiiisland.org,(808) 935-6677
Truckee Meadows HFH ReStore,530 Greenbrae Drive,Sparks,US-NV,89431,habitatforhumanityreno.org/restore.html,(775) 323-5511
Nevada County HFH ReStore,12359 Loma Rica Dr,Grass Valley,US-CA,95945,https://nchabitat.org/habitat-restore,(530) 274-3761
El Dorado County Restore,6168 Pleasant Vly Rd,El Dorado,US-CA,95623,www.edchabitat.org/restore,(530) 621-3317
Foothills HFH ReStore,8292 Industrial Ave,Roseville,US-CA,95678,www.foothillshabitat.org,(916) 797-8673
"Yuba/Sutter ReStore, HFH",202 D Street,Marysville,US-CA,95901,www.yubasutterhabitat.org/restore,(530) 742-2727
Sacramento HFH Restore,819 N 10th St,Sacramento,US-CA,95811,habitatgreatersac.org/restore/sacrestore,(916) 440-1215
"Calaveras, HFH ReStore",770A Industrial Blvd,San Andreas,US-CA,95249,www.habitatcalaveras.org/restore,(209) 754-3234
"Butte Co ReStore, HFH of",220 Meyers St,Chico,US-CA,95928,www.buttehabitat.org/page/re-store.php,(530) 895-1271
"Tuolumne County ReStore, HFH of",14301 Mono Way,Sonora,US-CA,95370,www.habitattuolumne.org/the-restore,(209) 533-9080
"San Joaquin County ReStore, HFH of",4933 West Lane,Stockton,US-CA,95203,www.sjchabitat.org,(209) 463-1043
"Stanislaus Co. Restore-Kearney, HFH",630 Kearney Ave,Modesto,US-CA,95350,www.stanislaushabitat.org,(209) 575-4585
"Sonoma County ReStore, HFH of",1201 Piner Rd #500,Santa Rosa,US-CA,95403,www.habitatsoco.org/restore,(707) 568-3228
Solano-Napa ReStore HFH,104 Commerce Ct,Fairfield,US-CA,94534,www.solanonapahabitat.org/restore,(707) 863-0692
La Pine Sunriver HFH ReStore,52684 N Highway 97,La Pine,US-OR,97739,www.habitatlapinesunriver.org,(541) 536-3234
Bend Area HFH ReStore,244 NE Thurston,Bend,US-OR,97701,www.restorebend.org,(541) 312-6709
Sisters HFH ReStore 1,211 East Cascade Ave,Sisters,US-OR,97759,www.sistershabitat.org,(541) 549-1740
Sisters HFH ReStore 2,254 W Adams,Sisters,US-OR,97759,sistershabitat.org/shfh_005.htm,(541) 549-1621
Coos Bay Area HFH Restore,776 S Second St,Coos Bay,US-OR,97420,https://www.cooscountyhabitat.org,(541) 756-1600
Jefferson County HFH ReStore,84 SW K St,Madras,US-OR,97741,www.jeffcohabitat.org,(541) 475-9722
"Fresno County, HFH ReStore",1631 Railroad Ave,Clovis,US-CA,93612,www.restorefresno.org,(559) 237-7867
"Springfield-Eugene ReStore, HFH",1210 Oak Patch Rd,Eugene,US-OR,97402,www.habitatlane.org/restore,(541) 344-4809
Florence HFH ReStore,2016 Highway 101,Florence,US-OR,97439,www.florencehabitat.org/restore,(541) 997-5834
Junction City ReStore,177 West 6th Ave.,Junction City,US-OR,97448,www.jchmhabitat.org/the-restore.html,(541) 998-1139
"Concord ReStore, HFH","1500 Monument Blvd, Ste G-2",Concord,US-CA,94520,restore.habitatebsv.org,(800) 746-7090
Benton HFH ReStore,4840 Philomath Blvd,Corvallis,US-OR,97333,www.BentonHabitat.org/restore,(541) 752-6637
Lebanon Area HFH ReStore,566 Main St.,Lebanon,US-OR,97355,www.lebanonoregonhabitat.com,(541) 451-1234
"Oakland ReStore, HFH",9235 San Leandro St,Oakland,US-CA,94603,restore.habitatebsv.org,(800) 746-7090
"San Jose ReStore, HFH",1608 Las Plumas Ave,San Jose,US-CA,95133,restore.habitatebsv.org,(800) 746-7090
"Lincoln County ReStore - Newport, HFH",134 E. Olive St.,Newport,US-OR,97365,www.hfhlc.org,(541) 264-8585
Albany Area HFH ReStore,1225 SE 6th Ave,Albany,US-OR,97321,www.albanyareahfh.org/restore.htm,(541) 924-1450
"Fresno County, HFH ReStore - West",4065 W. Shaw Avenue,Fresno,US-CA,93722,www.habitatfresno.org/restore,(559) 380-0140
HFH of Tulare/Kings Counties ReStore- Hanford,415 W Lacey Blvd.,Hanford,US-CA,93230,www.hfhtkc.org/restore,(559) 772-4032
"Tulare County ReStore, HFH of",637 S Lovers Ln,Visalia,US-CA,93292,www.hfhtkc.org/restore,(559) 734-4056
"Monterey Bay, HFH - Monterey ReStore",4230 Gigling Road,Seaside,US-CA,93955,habitatmontereybay.org/restore,(831) 272-4830
